QIANFAN-41              
1 62242U 24232F   25215.88955528  .00000051  00000+0  60962-4 0  9996
2 62242  88.9929  54.4246 0013037 202.2378 157.8209 13.50959584 81589
QIANFAN-42              
1 62243U 24232G   25215.89666129  .00000137  00000+0  52743-4 0  9997
2 62243  88.9927  52.3233 0016172 145.0981 215.1275 14.24334038 82741
QIANFAN-43              
1 62244U 24232H   25215.88539862  .00000057  00000+0  70321-4 0  9993
2 62244  88.9934  54.4845 0014382 208.6223 151.4140 13.50952378 50196
QIANFAN-44              
1 62245U 24232J   25215.87312939  .00000056  00000+0  67636-4 0  9991
2 62245  88.9932  54.2985 0012704 204.5632 155.4916 13.50962376 81663
QIANFAN-45              
1 62246U 24232K   25215.91424947  .00000056  00000+0  68853-4 0  9992
2 62246  88.9935  54.4363 0013362 204.4667 155.5851 13.50958161 81595
QIANFAN-46              
1 62247U 24232L   25215.93893683  .00000039  00000+0  41156-4 0  9990
2 62247  88.9931  54.5082 0013262 210.3417 149.6968 13.50960212 81558
QIANFAN-47              
1 62248U 24232M   25215.94297802  .00000044  00000+0  49183-4 0  9997
2 62248  88.9927  54.4460 0013713 209.5816 150.4561 13.50959860 81586
QIANFAN-48              
1 62249U 24232N   25215.90603494  .00000060  00000+0  74596-4 0  9996
2 62249  88.9932  54.4464 0015889 213.4522 146.5627 13.50953744 81585
